Store_Name,Address,City_State_Zip,Phone_Number,State
Aspen Hill,2219 Bel Pre Road,"Silver Spring, MD  20906",(301) 348-3650,MD
Baltimore - Eastern Ave,5711 Fleet St,"Baltimore, MD  21224",(443) 853-8315,MD
Bowie,15401 Emerald Way,"Bowie, MD  20716",(301) 867-6623,MD
Crofton/Gambrills,2625 Brandermill Blvd,"Gambrills, MD  21054",(410) 774-0350,MD
Gaithersburg - Copley Place,314 Copley Place,"Gaithersburg, MD  20878",(301) 944-5734,MD
Gaithersburg - Quince Orchard,602 Quince Orchard Rd,"Gaithersburg, MD  20878",(301) 987-5421,MD
Greenbelt MD,7415 Greenbelt Road,"Greenbelt, MD  20770",(301) 441-8300,MD
Hyattsville,2970 Belcrest Center Drive,"Hyattsville, MD  20782",(301) 559-5031,MD
Lanham,9450 Ruby Lockhart Blvd,"Lanham, MD  20706",(240) 623-8662,MD
Lansdowne,3551 Washington Blvd,"Lansdowne, MD  21227",(410) 242-2062,MD
Laurel,327 Montrose Ave,"Laurel, MD  20707",(240) 294-5867,MD
Marlboro,50 Watkins Park Drive,"Upper Marlboro, MD  20774",(301) 909-7669,MD
Owings Mills,10040 Reisterstown Road,"Owings Mills, MD  21117",(443) 641-0138,MD
Pasadena MD,8120 Jumpers Hole Road,"Pasadena, MD  21122",(443) 344-0213,MD
Rockville (Signature),11416 Rockville Pike Suite A,"Rockville, MD  20852",(301) 761-0001,MD
Silver Spring,8616 Cameron St,"Silver Spring, MD  20910",(301) 589-2323,MD
Towson,435 York Road #300,"Towson, MD  21204",(410) 842-1872,MD
Waldorf,2916 Festival Way,"Waldorf, MD  20601",(240) 530-8102,MD
Wheaton,11010 Veirs Mill Road,"Wheaton, MD  20902",(301) 933-6100,MD
White Marsh,8221 Town Center Drive,"Nottingham, MD  21236",(410) 931-8080,MD
Baton Rouge - Siegen LN (Esporta),6474 Siegen LN,"Baton Rouge, LA  70809",(225) 663-4191,LA
Slidell (Esporta),390 Town Center Parkway,"Slidell, LA  70458",(985) 718-3095,LA
Little Rock - Chenal Pkwy (Esporta),11700 Chenal Parkway,"Little Rock, AR  72211",(501) 707-1121,AR
Little Rock - S. University Ave (Esporta),304 S University Ave,"Little Rock, AR  72205",(501) 707-3561,AR
N. Little Rock-Lakewood Village (Esporta),2939 Lakewood Village Dr,"N. Little Rock, AR  72116",(501) 708-0878,AR
Avenel,1624 St Georges Ave,"Avenel, NJ  07001",(732) 217-5001,NJ
Brick,1 Brick Plaza,"Brick, NJ  08723",(732) 746-0824,NJ
Cherry Hill (Esporta),2100 State Hwy #38,"Cherry Hill, NJ  08002",(856) 482-8565,NJ
Clark (Signature),1255 Raritan Rd Suite 720,"Clark, NJ  07066",(732) 943-9008,NJ
Cliffwood Rte 35 (Signature),325 State Route 35,"Cliffwood, NJ  07721",(732) 231-2409,NJ
Clifton - Ackerman Ave (Esporta),87 Ackerman Ave,"Clifton, NJ  07011",(862) 225-2023,NJ
Clifton (Signature),852 Route 3,"Clifton, NJ  07012",(973) 574-4175,NJ
East Brunswick - State Route 18 (Esporta),341 State Route 18,"East Brunswick, NJ  08816",(732) 353-3081,NJ
Edison,905 US Route 1,"Edison, NJ  08817",(732) 226-8570,NJ
Glassboro (Esporta),731 Delsea Drive N.,"Glassboro, NJ  08028",(856) 556-1071,NJ
Hanover-Sylvan Way,30 Sylvan Way,"Parsippany, NJ  07054",(973) 232-0709,NJ
Holmdel,2101 Route 35,"Holmdel, NJ  07733",(732) 757-0051,NJ
Howell,90 Lanes Mill Road,"Howell, NJ  07731",(848) 222-2010,NJ
Kearny (Signature),175 Passaic Ave,"Kearny, NJ  07032",(201) 283-9703,NJ
Lodi (Signature),199 Main St,"Lodi, NJ  07644",(551) 245-9486,NJ
Marlton,1051 Route 73 North,"Marlton, NJ  08053",(856) 452-9003,NJ
MT Laurel,4300 Dearborn Circle,"Mt. Laurel, NJ  08054",(856) 638-0419,NJ
Newark - South Orange Ave,237 South Orange Ave,"Newark, NJ  07103",(862) 229-1679,NJ
North Bergen (Esporta),3137 Kennedy Boulevard,"North Bergen, NJ  07047",(201) 974-9010,NJ
North Brunswick,536 Milltown Road,"North Brunswick, NJ  08902",(732) 342-7440,NJ
Paramus Route 17 (Signature),240 Route 17 N,"Paramus, NJ  07652",(201) 576-8093,NJ
Parsippany (Esporta),1159 US Highway 46,"Parsippany, NJ  07054",(973) 588-9935,NJ
Piscataway (Esporta),200 New World Way,"South Plainfield, NJ  07080",(908) 755-3104,NJ
Randolph (Esporta),140 State Highway 10,"Randolph, NJ  07869",(973) 500-3077,NJ
Secaucus (Signature),485 Harmon Meadow,"Secaucus, NJ  07094",(201) 751-9940,NJ
Somerdale (Esporta),711 East Evesham Avenue Building 1A,"Somerdale, NJ  08083",(856) 282-0380,NJ
South Plainfield - Oak Tree Ave (Presale),907 Oak Tree Ave Suite 11C,"South Plainfield, NJ  07080",(908) 427-5598,NJ
Toms River Hooper Ave,1207 Hooper Ave,"Toms River, NJ  08753",(732) 244-7154,NJ
Turnersville (Esporta),5901 Route 42,"Turnersville, NJ  08012",(856) 401-9688,NJ
Union (Signature),1235 West Chestnut St,"Union, NJ  07083",(908) 468-2919,NJ
Wayne,1070 Hamburg Turnpike,"Wayne, NJ  07470",(973) 694-0175,NJ
West Orange - Prospect,471 Prospect Ave,"West Orange, NJ  07052",(862) 233-8027,NJ
Woodbury Heights (Esporta),1006 Mantua Pike,"Woodbury, NJ  08097",(856) 381-4941,NJ
Amherst (Esporta),3040 Sheridan Drive,"Amherst, NY  14226",(716) 541-0648,NY
Bay Shore - Sunrise Hwy,1675 Sunrise Hwy,"Bay Shore, NY  11706",(631) 201-4391,NY
Bronx - Eastchester Rd. (Signature),1776 Eastchester Road,"Bronx, NY  10461",(917) 634-5609,NY
Buffalo - Delaware Ave (Esporta),69 Delaware Avenue,"Buffalo, NY  14202",(716) 845-6660,NY
Buffalo - Elmwood Ave,1893 Elmwood Ave Suite 200,"Buffalo, NY  14207",(716) 541-1092,NY
Centereach (Signature),1934 Middle Country Road,"Centereach, NY  11720",(631) 820-4604,NY
Cheektowaga (Esporta),"3737 Union Road, Suite 7","Cheektowaga, NY  14225",(716) 391-9110,NY
Clarence (Esporta),5089 Transit Road,"Buffalo, NY  14221",(716) 810-1004,NY
Commack (Signature),68 Veterans Memorial Highway,"Commack, NY  11725",(631) 623-5216,NY
Farmingdale (Signature),2110 Route #110 Broad Hollow Road,"Farmingdale, NY  11735",(631) 293-4263,NY
Farmingville (Signature),2280 North Ocean Ave Suite A,"Farmingville, NY  11738",(631) 496-3009,NY
Garden City (Signature),711 Stewart Ave,"Garden City, NY  11530",(516) 214-9691,NY
Garden City Park (Signature),2350 Jericho Turnpike,"Garden City Park, NY  11040",(516) 418-5017,NY
Greece (Esporta),1867 W Ridge Rd,"Greece, NY  14615",(585) 441-3899,NY
Hamburg - Mckinley Parkway (Esporta),3701 Mckinley Parkway,"Blasdell, NY  14219",(716) 249-3190,NY
Henrietta (Esporta),100 Marketplace Drive,"Henrietta, NY  14623",(585) 797-0411,NY
Huntington Station (Signature),305 W. Jericho Turnpike,"Huntington Station, NY  11746",(631) 683-3000,NY
Irondequoit (Esporta),1600 East Ridge Road,"Rochester, NY  14621",(585) 797-0414,NY
Lake Grove (Signature),110 New Moriches Rd,"Lake Grove, NY  11755",(631) 619-2222,NY
Lake Success (Signature),1111 Marcus Avenue,"New Hyde Park, NY  11042",(516) 355-2302,NY
Lawrence NY (Signature),345 Rockaway Turnpike,"Lawrence, NY  11559",(516) 758-2994,NY
Levittown (Signature),3601-C Hempstead Turnpike,"Levittown, NY  11756",(516) 342-8135,NY
Lindenhurst (Signature),455 Park Avenue,"Lindenhurst, NY  11757",(631) 412-6000,NY
Niagara Falls - NY (Esporta),6610 Niagara Falls Blvd,"Niagara Falls, NY  14304",(716) 205-3333,NY
North Babylon (Signature),1230 Deer Park Ave,"North Babylon, NY  11703",(631) 306-8102,NY
Patchogue (Signature),5 Gateway Blvd,"Patchogue, NY  11772",(631) 247-7001,NY
Perinton (Presale),"6687 Pittsford Palmyra, Ste. 15","Fairport, NY  14450",(585) 430-7494,NY
Port Chester (Signature),260 Boston Post Rd,"Port Chester, NY  10573",(914) 233-2211,NY
Port Jefferson Station (Signature),1046 Route 112,"Port Jefferson Station, NY  11776",(631) 403-3002,NY
Queens - South Conduit (Signature),"133-40 79th Street, Unit B","Howard Beach, NY  11414",(347) 817-7632,NY
Rochester - East Ave (Signature),78 Rockwood St,"Rochester, NY  14610",(585) 510-6265,NY
Smithtown (Signature),122 East Main Street,"Smithtown, NY  11787",(631) 982-8010,NY
Staten Island - East Service Rd (Signature),145 East Service Road,"Staten Island, NY  10314",(718) 761-5606,NY
Staten Island - Forest Ave (Signature),1565 Forest Ave,"Staten Island, NY  10302",(917) 722-2604,NY
Staten Island - Hylan Blvd (Signature),"2656 Hylan Blvd 2nd Floor, Suite #250","Staten Island, NY  10306",(929) 202-2005,NY
Staten Island - Richmond Ave. (Signature),3231 Richmond Ave,"Staten Island, NY  10312",(718) 569-5882,NY
Webster (Esporta),929 Holt Road,"Webster, NY  14580",(585) 236-4359,NY
West Seneca (Esporta),1012 Union Rd,"West Seneca, NY  14224",(716) 324-2476,NY
Yonkers (Signature),"77 Cole Street, Space 1290","Yonkers, NY  10710",(914) 297-4477,NY
Natick,1 Dean Road (Sherwood Plaza),"Natick, MA  01760",(508) 318-4073,MA
Saugus,1450 Broadway,"Saugus, MA  01906",(781) 417-5050,MA
"Springfield, MA (Esporta)","1150 West Columbus Avenue, Unit 1","Springfield, MA  01105",(413) 301-1015,MA
Stoneham,121 Main Street,"Stoneham, MA  02180",(781) 435-5999,MA
Stoughton,3 Hawes Way,"Stoughton, MA  02072",(781) 573-0172,MA
Walpole,20 Providence Highway,"Walpole, MA  02032",(508) 505-3020,MA
Beavercreek AT The Greene (Esporta),4494 Walnut Street,"Beavercreek, OH  45440",(937) 427-0700,OH
Beavercreek/N Fairfield (Esporta),2500-F North Fairfield Rd,"Beavercreek, OH  45431",(937) 912-0063,OH
"Brooklyn - Tiedeman, OH (Esporta)",5000 Tiedeman Road,"Brooklyn, OH  44144",(216) 912-1537,OH
Centerville (Esporta),45 West Alex Bell Road,"Centerville, OH  45459",(937) 684-8160,OH
Columbus - East Broad St. (Esporta),6585 East Broad Street,"Columbus, OH  43213",(614) 892-7092,OH
Columbus Old Hamilton Rd (Esporta),5959 Old Hamilton Rd,"Columbus, OH  43230",(614) 476-4653,OH
Columbus-Goodale Blvd (Esporta),850 Goodale Blvd,"Columbus, OH  43212",(614) 643-0070,OH
Columbus-Graceland Blvd (Esporta),260 Graceland Blvd,"Columbus, OH  43212",(614) 310-0770,OH
Columbus-Polaris Pkwy (Esporta),2100 Polaris Parkway,"Columbus, OH  43240",(614) 430-9210,OH
Cuyahoga Falls (Esporta),1969 Portage Trail,"Cuyahoga Falls, OH  44223",(330) 622-4111,OH
Fairfield Township (Esporta),3312 Princeton Road,"Hamilton, OH  45011",(513) 334-0082,OH
Hilliard-Tanglewood Park Blvd (Esporta),1800 Tanglewood Park Blvd,"Hilliard, OH  43026",(614) 850-8888,OH
Lyndhurst - Legacy Village (Esporta),25145 Cedar Road,"Lyndhurst, OH  44124",(216) 291-8555,OH
Maumee-Conant St (Esporta),1361 Conant Street,"Maumee, OH  43537",(419) 482-7740,OH
Oakley (Esporta),4700 Marburg Ave,"Cincinnati, OH  45209",(513) 297-1121,OH
Symmes-Harpers Point (Esporta),11359 Montgomery Road,"Symmes, OH  45249",(513) 297-1139,OH
Toledo-Holland Sylvania Rd (Esporta),2859 N Holland Sylvania Road,"Toledo, OH  43615",(419) 535-6669,OH
West Chester - Tylersville Rd (Esporta),7730 Dudley Drive,"West Chester, OH  45069",(513) 298-0134,OH
Westlake - Crocker Park (Esporta),131 Market Street,"Westlake, OH  44145",(440) 892-4653,OH
Avon - Rockville Rd,9030 Rockville Road,"Indianapolis, IN  46234",(317) 644-0200,IN
Carmel/Zionsville-N Michigan Rd,10574 Workout Way,"Carmel, IN  46032",(317) 708-3862,IN
Fishers,11752 Cumberland Road,"Fishers, IN  46037",(317) 436-0013,IN
Greenwood,540 N. State Road 135,"Greenwood, IN  46142",(317) 215-5947,IN
Indianapolis - E. Washington St,9529 East Washington Street,"Indianapolis, IN  46229",(317) 829-0022,IN
Indianapolis - Keystone Ave,6160 N. Keystone Avenue,"Indianapolis, IN  46220",(317) 254-8977,IN
Indianapolis Shore Dr - 38th St,4015 Shore Drive,"Indianapolis, IN  46254",(317) 238-3163,IN
Lawrence - Pendleton Pike,9930 Pendleton Pike,"Indianapolis, IN  46236",(317) 855-9012,IN
Noblesville - Mercantile Blvd.,16640 Mercantile Blvd,"Noblesville, IN  46060",(317) 774-0900,IN
Southport,3855 E. Southport Rd,"Indianapolis, IN  46237",(317) 644-0683,IN
Westfield - 146th St,2744 E. 146th Street,"Carmel, IN  46033",(317) 973-0001,IN
Alsip,12080 S. Cicero Avenue,"Alsip, IL  60803",(708) 377-3589,IL
Arlington Heights - Palatine Rd,345 East Palatine Road,"Arlington Heights, IL  60004",(224) 318-1447,IL
Bolingbrook (Esporta),506 Janes Avenue,"Bolingbrook, IL  60440",(630) 739-7011,IL
Broadview,200 Broadview Village Square,"Broadview, IL  60155",(708) 273-6977,IL
Carol Stream,470 E North Ave,"Carol Stream, IL  60188",(630) 580-1373,IL
Chicago - Addison AT Kennedy,3443 West Addison St,"Chicago, IL  60618",(773) 275-4192,IL
Chicago - Foster AT Edens,4705 W Foster Ave,"Chicago, IL  60630",(773) 271-9898,IL
Chicago - Kedzie Ave (Esporta),5559 S Kedzie Ave,"Chicago, IL  60629",(312) 288-3048,IL
Chicago - Lakeview East,2828 North Clark Street,"Chicago, IL  60657",(773) 929-6900,IL
Chicago - Lawrence Ave.,1804 West Lawrence Ave,"Chicago, IL  60640",(773) 250-0298,IL
Chicago - Norwood Park,5444 N Cumberland Ave,"Chicago, IL  60656",(773) 380-8600,IL
Chicago - Rogers Park (Esporta),7529 North Clark Street,"Chicago, IL  60626",(773) 274-1686,IL
Chicago - S. Lake Park (Signature),5224 S Lake Park Ave,"Chicago, IL  60615",(773) 358-4228,IL
Chicago - S. Martin Luther King,3435 South Dr Martin Luther King JR Drive,"Chicago, IL  60616",(312) 821-7972,IL
Chicago - W. Pershing Rd (Esporta),2620 W Pershing Road,"Chicago, IL  60632",(872) 444-3746,IL
Chicago IL - N. Broadway,6107 North Broadway Street,"Chicago, IL  60660",(773) 250-1708,IL
Countryside (Esporta),5917 SO. LA Grange Road,"Countryside, IL  60525",(708) 482-4700,IL
East Loop (Signature),55 East Randolph St,"Chicago, IL  60601",(312) 281-0113,IL
Elmhurst,620 North York St,"Elmhurst, IL  60126",(630) 491-0112,IL
Glendale Heights,265 East Army Trail Road,"Glendale Heights, IL  60139",(630) 893-0600,IL
Glenview - Willow Rd.,3880 Willow Road,"Glenview, IL  60062",(847) 597-4373,IL
Hanover Park (Esporta),7650 North Barrington Road,"Hanover Park, IL  60133",(630) 289-7738,IL
"Highland Park, IL",115 Skokie Valley Road,"Highland Park, IL  60035",(847) 315-9029,IL
Joliet (Esporta),1745 Route 59,"Plainfield, IL  60586",(815) 676-5519,IL
Lake Zurich,825 South Rand Road,"Lake Zurich, IL  60047",(847) 719-8475,IL
Lansing (Esporta),17365 Torrence Ave,"Lansing, IL  60438",(708) 251-0173,IL
Lombard (Esporta),575 East Roosevelt Road,"Lombard, IL  60148",(630) 576-1662,IL
Matteson (Esporta),4340 Lincoln Highway,"Matteson, IL  60443",(708) 668-4719,IL
Morgan Park (Esporta),11520 South Marshfield Ave,"Chicago, IL  60643",(773) 905-0060,IL
MT Prospect Plaza,1145 MT Prospect Plaza,"Mt Prospect, IL  60056",(847) 463-9295,IL
Naperville,1836 Freedom Drive,"Naperville, IL  60563",(630) 303-9341,IL
Naperville Rte 59 (Signature),3116 South Route 59 Suite 160,"Naperville, IL  60564",(331) 226-0566,IL
"New Lenox, IL",2431 East Lincoln Highway,"New Lenox, IL  60451",(815) 320-5085,IL
Niles - Touhy Ave (Signature),5701 W Touhy Ave,"Niles, IL  60714",(773) 993-1114,IL
Oak Brook,2030 York Road,"Oakbrook, IL  60523",(630) 684-0176,IL
Oak Lawn (Esporta),8812 South Cicero Ave,"Oak Lawn, IL  60453",(708) 931-0022,IL
Oswego (Esporta),201 Ogden Falls Road,"Oswego, IL  60543",(630) 608-4284,IL
Round Lake Beach (Esporta),540 E. Rollins Rd,"Round Lake Beach, IL  60073",(847) 752-6841,IL
South Elgin (Esporta),488 Randall Rd,"South Elgin, IL  60177",(630) 503-7749,IL
South Loop,1101 South Canal Street,"Chicago, IL  60607",(312) 379-8631,IL
"Springfield-Wabash Ave, IL (Esporta)",2501 Wabash Ave,"Springfield, IL  62704",(217) 801-9007,IL
Tinley Park (Signature),18400 Convention Center Drive,"Tinley Park, IL  60477",(708) 429-7050,IL
Waukegan (Esporta),452 Lakehurst Rd,"Waukegan, IL  60085",(224) 399-0990,IL
West Dundee (Esporta),400 North Eighth Street,"West Dundee, IL  60118",(847) 915-3256,IL
Westmont (Signature),100 West 63rd St,"Westmont, IL  60559",(630) 239-2370,IL
Rock Hill,745 Arden Lane,"Rock Hill, SC  29732",(803) 818-3368,SC
Akers Mill,2995 Cobb Parkway,"Atlanta, GA  30339",(770) 956-9093,GA
Alpharetta/Windward,"5530 Windward Parkway, Suite H","Alpharetta, GA  30004",(678) 393-2733,GA
Ansley Mall,1544 Piedmont Ave NE Suite 115,"Atlanta, GA  30324",(404) 249-6463,GA
Atlanta-Peachtree Rd,3535 Peachtree Road NE Suite 300,"Atlanta, GA  30326",(404) 389-1143,GA
Atlantic Station,261 19th St. Suite 1140,"Atlanta, GA  30363",(404) 810-9015,GA
Austell - Austell Rd,"3999 Austell Road, Suite 101","Austell, GA  30106",(678) 224-9091,GA
Brookhaven,755 Brookhaven Ave,"Atlanta, GA  30319",(678) 280-8844,GA
Buford,3420 Buford Drive NE,"Buford, GA  30519",(678) 714-5075,GA
Camp Creek,"3755 Carmia Dr. SW, Suite 700","Atlanta, GA  30331",(404) 344-1248,GA
College Park,6385 Old National Highway,"Atlanta, GA  30349",(678) 304-2444,GA
Conyers,1618 Highway 138,"Conyers, GA  30013",(770) 760-1337,GA
Cumming,540 Lakeland Plaza,"Cumming, GA  30040",(678) 208-3049,GA
Decatur - Church St,1496 Church St,"Decatur, GA  30030",(404) 267-2723,GA
Decatur - Covington Hwy,6088 Covington Highway,"Decatur, GA  30035",(770) 308-0238,GA
Douglasville,3020 Chapel Hill Rd,"Douglasville, GA  30135",(678) 202-5613,GA
Duluth - Peachtree Industrial,3455 Peachtree Industrial Blvd,"Duluth, GA  30096",(770) 285-2046,GA
Duluth - Pleasant Hill Rd,1625 Pleasant Hill Rd # 245,"Duluth, GA  30096",(678) 259-2309,GA
East Cobb,4400 Roswell Road Suite 126,"Marietta, GA  30062",(770) 973-3370,GA
Holcomb @ 400,1475 Holcomb Bridge Rd Ste 189,"Roswell, GA  30076",(770) 640-8137,GA
Johns Creek,11720 Medlock Bridge Road Suite 400,"Duluth, GA  30097",(770) 623-9433,GA
Kennesaw - Wade Green,4200 Wade Green Rd Suite 38,"Kennesaw, GA  30144",(678) 202-5179,GA
Kennesaw-Barrett,1185 Ernest Barrett Pkwy NW,"Kennesaw, GA  30144",(678) 202-5503,GA
"Lawrenceville, GA",600 Gwinnett Dr,"Lawrenceville, GA  30045",(470) 222-2009,GA
"Lenox/Buckhead, GA","3232 Peachtree Road NW, #A","Atlanta, GA  30305",(404) 233-8311,GA
Marietta South,"1453 Terrell Mill Road, Suite 145","Marietta, GA  30067",(678) 279-2843,GA
Mcdonough,95 Foster Drive,"Mcdonough, GA  30253",(678) 228-8011,GA
Midtown,75 Fifth Street NW Suite E,"Atlanta, GA  30308",(404) 212-1065,GA
Norcross - Peachtree Corners,6131 Peachtree Parkway,"Peachtree Corners, GA  30092",(470) 282-0915,GA
North Lake Tucker,1990 West Exchange Place,"Tucker, GA  30084",(770) 414-0651,GA
Perimeter Pointe,"1155 Mount Vernon Hwy., Ste 600","Dunwoody, GA  30338",(770) 350-4951,GA
Roswell-Hwy 92/Hardscrabble Rd,1045 Woodstock Road,"Roswell, GA  30075",(770) 375-4351,GA
Sandy Springs,6690 Roswell Road,"Sandy Springs, GA  30328",(404) 478-4161,GA
Snellville,2279 Pinehurst Rd,"Snellville, GA  30078",(770) 979-1288,GA
Southlake,7057 Mount Zion Circle,"Morrow, GA  30260",(770) 960-0393,GA
Sprayberry,2550 Sandy Plains Rd,"Marietta, GA  30066",(678) 202-5178,GA
Stone Mountain,5295 Stone Mountain Highway,"Stone Mountain, GA  30087",(770) 469-2120,GA
Sugar Hill,6025 Cumming Highway,"Sugar Hill, GA  30518",(470) 202-9109,GA
Sugarloaf,1860 Duluth Highway,"Lawrenceville, GA  30043",(770) 822-2533,GA
Toco Hills,2880 N. Druid Hill,"Atlanta, GA  30329",(404) 321-2330,GA
Towne Lake,2060 Eagle Drive,"Woodstock, GA  30189",(678) 202-5612,GA
Bellevue-Fairfield Ave (Esporta),119 Fairfield Ave Ste 200,"Bellevue, KY  41073",(859) 957-2700,KY
Crescent Springs (Esporta),550 Clock Tower Way,"Crescent Springs, KY  41017",(859) 663-2920,KY
Lexington-Blake James Dr (Esporta),3001 Blake James Dr,"Lexington, KY  40509",(859) 269-2492,KY
Lexington-Wellington Way (Esporta),1028 Wellington Way,"Lexington, KY  40513",(859) 219-9558,KY
Louisville-Taylorsville Rd (Esporta),4620 Taylorsville Road,"Louisville, KY  40220",(502) 671-8233,KY
Cranston (Esporta),190 Hillside Rd,"Cranston, RI  02920",(401) 854-0330,RI
Pawtucket,615 Pawtucket Ave,"Pawtucket, RI  02860",(401) 834-1397,RI
Warwick - Bald Hill Rd. (Esporta),1500 Bald Hill Road,"Warwick, RI  02886",(401) 773-2933,RI
Abington,371 Highland Ave,"Glenside, PA  19038",(215) 277-2032,PA
Allentown,1515 Mauch Chunk Road,"Allentown, PA  18102",(610) 432-7330,PA
Andorra,701 Cathedral Road,"Philadelphia, PA  19128",(215) 482-4088,PA
Bala Cynwyd,25 East City Avenue,"Bala Cynwyd, PA  19004",(610) 664-4282,PA
Bensalem,500 Rock Hill Drive,"Bensalem, PA  19020",(215) 357-4311,PA
Bridgeville,1155 Washington Pike,"Bridgeville, PA  15017",(412) 569-1180,PA
Brookhaven-Edgmont Ave,4900 Edgmont Ave,"Brookhaven, PA  19015",(484) 768-8216,PA
Broomall (Signature),2170 West Chester Pike,"Broomall, PA  19008",(484) 427-2045,PA
Camp Hill,3321 Trindle Road,"Camp Hill, PA  17011",(717) 731-1015,PA
Cheltenham,2401 Cheltenham Ave Suite M3,"Cheltenham, PA  19150",(267) 536-5228,PA
Collegeville,400 Front Street Suite #3,"Collegeville, PA  19426",(484) 961-6012,PA
Downingtown,109 Quarry Road,"Downingtown, PA  19335",(484) 237-2012,PA
East Norriton/Swede Square,2961 Swede Road,"East Norriton, PA  19401",(610) 279-0383,PA
Easton,340 South 25th St,"Easton, PA  18042",(484) 541-4020,PA
FT Washington,1175 Virginia Drive,"Fort Washington, PA  19034",(215) 646-1131,PA
Greensburg,3000 Lincoln Place,"Greensburg, PA  15601",(724) 261-3301,PA
Huntingdon Valley,2020 County Line Rd.,"Huntingdon Vly, PA  19006",(215) 364-8044,PA
King OF Prussia - Village Dr,200 Village Dr,"King Of Prussia, PA  19406",(215) 716-9093,PA
Lancaster,1300A Lititz Pike,"Lancaster, PA  17601",(717) 295-1990,PA
Monroeville,"4100 William Penn Highway, Suite 43","Monroeville, PA  15146",(412) 357-1133,PA
Montgomeryville,120 Garden Golf Blvd.,"North Wales, PA  19454",(215) 361-6133,PA
North Hills,8700 Duncan Avenue,"Pittsburgh, PA  15237",(412) 204-4023,PA
Oxford Valley,7 Cabot Blvd.,"Langhorne, PA  19047",(215) 943-9500,PA
Philadelphia - Cottman Ave,2327 Cottman Ave,"Philadelphia, PA  19149",(267) 668-1467,PA
Philadelphia - Grant Ave,2560 Grant Avenue,"Philadelphia, PA  19114",(267) 344-1452,PA
Philadelphia-Franklin Mills,851 Franklin Mills Circle,"Philadelphia, PA  19154",(215) 637-1580,PA
Pittsburgh/Southside Works,2701 East Carson Street,"Pittsburgh, PA  15203",(412) 360-0256,PA
Pittsburgh-Penn Ave (Signature),6425 Penn Ave,"Pittsburgh, PA  15206",(412) 204-0055,PA
Pleasant Hills,"601 Clairton Blvd., Unit 38","Pleasant Hills, PA  15236",(412) 224-1888,PA
Pottstown,120 Upland Square Drive Suite 120,"Stowe, PA  19464",(484) 948-3168,PA
Robinson Township,400 Settlers Ridge Center Drive,"Pittsburgh, PA  15205",(412) 620-1080,PA
"Springfield, PA",825 Baltimore Pike,"Springfield, PA  19064",(610) 543-2006,PA
Warrington,599 Paul Valley Road,"Warrington, PA  18976",(215) 918-0900,PA
"West Chester-Paoli Pike, PA",975 Paoli Pike,"West Chester, PA  19380",(610) 235-2788,PA
Wyomissing,1183 Berkshire Blvd.,"Wyomissing, PA  19610",(610) 373-6515,PA
Melbourne - Wickham Rd. (Esporta),2447 N Wickham Rd Suite 102,"Melbourne, FL  32935",(321) 216-2280,FL
Miami - Aventura,3455 NE 207th Street,"Miami, FL  33180",(305) 931-3181,FL
Miami - Bird Rd,8310 Bird Road,"Miami, FL  33155",(786) 358-0525,FL
Miami - W. Flagler St,9291 W Flagler St,"Miami, FL  33174",(305) 925-0868,FL
Miami Gardens,1580 NE Miami Gardens Drive,"N. Miami Beach, FL  33179",(305) 940-6249,FL
Miami Gardens - NW 57th Ave (Presale),18508 NW 67th Ave,"Hialeah, FL  33015",(305) 961-5287,FL
Miami West -SW 8th Street,14100 SW 8th Street,"Miami, FL  33184",(305) 222-1041,FL
Miami-Sw 56th St,13838 S.W. 56th Street,"Miami, FL  33175",(305) 380-6969,FL
N Coral Springs - Coral Ridge,5631 Coral Ridge Drive,"Coral Springs, FL  33076",(954) 752-9400,FL
Naples @ Golden Gate / 68th St (Esporta),6800 Golden Gate Parkway,"Naples, FL  34105",(239) 643-7546,FL
Naples @ Vanderbilt Beach Rd,871 Vanderbilt Beach Rd,"Naples, FL  34108",(239) 249-6768,FL
New Tampa,6411 County Line Rd East,"Tampa, FL  33647",(813) 435-6040,FL
North Miami,1801 NE 123rd St Suite 200,"North Miami, FL  33181",(786) 718-1789,FL
Ocoee (Esporta),1560 E.Silver Star Rd,"Ocoee, FL  34761",(407) 965-2139,FL
"Orange City, FL (Esporta)",2629 Enterprise Rd,"Orange City, FL  32763",(386) 878-4582,FL
Orange Park - Blanding Blvd.,"661 Blanding Blvd, Suite 800","Orange Park, FL  32073",(904) 579-2329,FL
Orange Park Blanding @ 295,6000 Lake Gray Blvd,"Jacksonville, FL  32244",(904) 999-3289,FL
Orlando - Goldenrod Rd. (Esporta),5915 South Goldenrod Road,"Orlando, FL  32822",(407) 362-6081,FL
Orlando - Goldenrod Rd. AT 408 (Esporta),189 South Goldenrod Rd,"Orlando, FL  32807",(407) 517-5237,FL
Orlando Metro West,4792 S. Kirkman Road,"Orlando, FL  32811",(407) 362-0645,FL
Oviedo,199 Mitchell Hammock Road,"Oviedo, FL  32765",(407) 977-8177,FL
Palm Beach Gardens/Lake Park,3176 Northlake Blvd,"Palm Beach Gardens, FL  33403",(561) 848-4170,FL
Palm Beach Gardens-Donald Ross (Signature),5260 Donald Ross Rd,"Palm Beach Gardens, FL  33418",(561) 223-6331,FL
Palm Harbor (Esporta),35104 U.S. Highway 19 North,"Palm Harbor, FL  34683",(727) 213-2458,FL
Pembroke Pines - 184th,18445 Pines Blvd.,"Pembroke Pines, FL  33029",(954) 441-5330,FL
Pembroke Pines West/Flamingo,1900 N. Flamingo Road,"W. Pembroke, FL  33028",(954) 447-3840,FL
PGA Blvd @ The Turnpike,7070 Fairway Drive,"Palm Beach Gardens, FL  33418",(561) 273-7080,FL
Plantation - S. University Dr.,1041 South University Dr,"Plantation, FL  33324",(954) 646-5971,FL
Pompano Beach,1000 North Federal Highway,"Pompano Beach, FL  33062",(954) 366-2569,FL
Port Orange,1810 Dunlawton Ave,"Port Orange, FL  32127",(386) 682-2509,FL
Port St Lucie - St Lucie W Blvd,1367 NW St Lucie West Blvd,"Port St Lucie, FL  34986",(772) 224-3950,FL
Port St. Lucie - SW Village,10624 SW Village Parkway,"Port St Lucie, FL  34987",(772) 345-2850,FL
Sanford (Esporta),300 W Lake Mary Blvd,"Sanford, FL  32773",(321) 275-1144,FL
Sarasota - Southgate Mall (Esporta),3501 S Tamiami Trail,"Sarasota, FL  34239",(941) 960-8730,FL
Sarasota Bee Ridge @ I-75,4057 Cattlemen Road,"Sarasota, FL  34233",(941) 225-4772,FL
Sawgrass,13999 West Sunrise Blvd,"Sunrise, FL  33323",(954) 838-7664,FL
Seminole - Park Blvd (Esporta),7635 113th Street,"Seminole, FL  33772",(727) 440-8065,FL
South Miami - Sunset Drive,5701 Sunset Drive Suite#134,"South Miami, FL  33143",(305) 665-7846,FL
Southland-Tpke / S Dixie,20505 South Dixie Highway,"Miami, FL  33189",(305) 232-5500,FL
St. Petersburg @ 22nd Ave North (Esporta),7044 22nd Avenue North,"St. Petersburg, FL  33710",(727) 322-4010,FL
St. Petersburg @ 4th St. North,5900 4th St. N.,"St. Petersburg, FL  33703",(727) 521-1500,FL
Stuart,1901 NW Federal Hwy,"Stuart, FL  34994",(772) 209-3010,FL
Tampa - Cypress Preserve Dr (Esporta),5225 Cypress Preserve Drive,"Tampa, FL  33647",(813) 337-0966,FL
Tampa - Gunn Hwy. (Esporta),5735 Gunn Highway,"Tampa, FL  33625",(813) 960-3783,FL
Tampa @ West Hillsborough Ave (Esporta),11252 West Hillsborough Ave.,"Tampa, FL  33635",(813) 814-1414,FL
Tampa-S Dale Mabry Hwy (Signature),301 S Dale Mabry Hwy,"Tampa, FL  33609",(813) 775-6492,FL
University Park - Cooper Creek,8502 Cooper Creek Blvd,"University Park, FL  34201",(941) 926-6282,FL
Valrico @ State Road 60 E (Esporta),1930 State Road 60 E,"Valrico, FL  33594",(813) 982-4149,FL
W Boynton Beach Blvd (Signature),6683 Boynton Beach Blvd,"Boynton Beach, FL  33437",(561) 770-8395,FL
W Palm Beach / N Military Trail,1925 N. Military Trail,"West Palm Beach, FL  33409",(561) 683-1277,FL
Bear,900 Eden Circle,"Bear, DE  19701",(302) 440-1378,DE
Aliana (Signature),19409 W Bellfort St,"Richmond, TX  77407",(346) 239-7748,TX
Arlington - US 287,5331 W Sublett Rd,"Arlington, TX  76017",(817) 203-0796,TX
Arlington North - I30 & Collins,141 Road TO Six Flags St. W,"Arlington, TX  76011",(817) 469-1384,TX
Arlington South - Little Rd,4850 Little Rd,"Arlington, TX  76017",(817) 478-2492,TX
Austin - Anderson Lane,2020 W Anderson Lane,"Austin, TX  78757",(512) 831-3393,TX
Austin - S. Lamar Blvd.,4001 S Lamar Blvd,"Austin, TX  78704",(512) 652-5779,TX
Austin - Slaughter Lane,1824 W Slaughter Lane,"Austin, TX  78748",(512) 593-4445,TX
Carrollton,4220 Midway Road,"Carrollton, TX  75007",(214) 483-1834,TX
Carrollton - N. Josey LN,3050 N. Josey LN,"Carrollton, TX  75007",(972) 417-0182,TX
Cedar Park - Whitestone Blvd,825 W Whitestone Blvd,"Cedar Park, TX  78613",(512) 546-6263,TX
Coppell (Signature),250 W State Highway 121,"Coppell, TX  75019",(469) 312-5351,TX
Cypress,12304 Barker Cypress Road,"Cypress, TX  77429",(281) 304-6500,TX
Dallas - Greenville Ave.,"5500 Greenville Ave, Suite 100","Dallas, TX  75206",(214) 530-0966,TX
Dallas - Illinois Ave,655 W Illinois Ave Ste 500,"Dallas, TX  75224",(469) 518-9351,TX
Dallas LBJ @ Webb Chapel (Esporta),3029 Forest Lane,"Dallas, TX  75234",(972) 499-0720,TX
Dallas Uptown (Signature),2690 N Haskell Ave,"Dallas, TX  75204",(214) 530-0005,TX
Dallas-Mockingbird LN @ Lemmon,4540 West Mockingbird Lane,"Dallas, TX  75209",(214) 453-4899,TX
Denton (Esporta),1350 South Loop 288,"Denton, TX  76205",(940) 380-2904,TX
Duncanville,114 E. Highway 67,"Duncanville, TX  75137",(972) 499-4889,TX
Eldridge Lakes,6386 North Eldridge Parkway,"Houston, TX  77041",(713) 493-6907,TX
Eldridge Pkwy @ Briar Forest,1555 Eldridge Parkway,"Houston, TX  77077",(281) 558-3801,TX
Euless,2600 Highway 121,"Euless, TX  76039",(817) 283-2115,TX
Fort Worth-Golden Triangle,5901 Golden Triangle Blvd,"Fort Worth, TX  76244",(682) 268-5021,TX
Frisco - Custer Rd,6345 Custer Bridges Rd,"Frisco, TX  75035",(214) 272-6831,TX
Frisco - Dallas Pkwy,5080 Main St,"Frisco, TX  75033",(469) 535-2506,TX
FT. Worth/Ridgmar,6500 Westworth Blvd.,"Westworth, TX  76114",(817) 339-6180,TX
FT. Worth/West 7th Street,2860 Crockett Street,"Fort Worth, TX  76107",(817) 870-1501,TX
Garland - W. Centerville Rd.,1201 W Centerville Road,"Garland, TX  75041",(972) 271-4614,TX
Grand Prairie (Esporta),2803 West Interstate Highway 20,"Grand Prairie, TX  75052",(972) 237-0084,TX
Highland Village,3198 Justin Road (FM 407),"Highland Village, TX  75077",(972) 317-9320,TX
Houston - Gessner/Kempwood Dr,2740 Gessner Rd,"Houston, TX  77080",(346) 561-0360,TX
Houston - Yale And Katy Fwy.,195 Yale St,"Houston, TX  77007",(713) 401-2840,TX
Houston 290 @ Hollister,13350 Northwest Freeway,"Houston, TX  77040",(713) 470-9465,TX
Houston Greenway (Signature),3838 Richmond Ave,"Houston, TX  77027",(713) 481-1909,TX
Houston TX - N Shepherd Dr,4412 North Shepherd Drive,"Houston, TX  77018",(713) 904-7543,TX
Hurst,701 NE Loop 820,"Hurst, TX  76053",(817) 591-1158,TX
Jersey Village,9244 W Sam Houston Parkway N,"Houston, TX  77064",(281) 640-9946,TX
Katy,19550 Restaurant Row,"Houston, TX  77084",(281) 578-0115,TX
Katy - Cinco Ranch,26726 FM 1093,"Richmond, TX  77406",(346) 707-1602,TX
Keller,1861 Main Street,"Keller, TX  76248",(817) 562-3052,TX
Klein,7422 Louetta Rd,"Spring, TX  77379",(281) 374-0048,TX
Lake Highlands,7211 Skillman Street,"Dallas, TX  75231",(214) 341-0115,TX
Langham Creek,17800 FM 529,"Houston, TX  77095",(281) 855-3041,TX
Las Colinas,5550 N. Macarthur Blvd.,"Irving, TX  75038",(972) 580-7528,TX
League City,1220 E. League City Parkway,"League City, TX  77573",(713) 893-5986,TX
Leon Valley,5601 Bandera Rd,"Leon Valley, TX  78238",(210) 682-8086,TX
Lewisville,798 Vista Ridge Mall Drive,"Lewisville, TX  75067",(972) 315-2300,TX
Marq*E,"7620 Katy Freeway, Ste. 200","Houston, TX  77024",(713) 984-8844,TX
Mckinney,2875 S. Central Expressway,"Mckinney, TX  75070",(469) 952-2319,TX
Mckinney - Custer Rd,9050 Falcon View Drive,"Mckinney, TX  75070",(469) 352-9399,TX
Medical Center (Signature),2130 W Holcombe Blvd,"Houston, TX  77030",(713) 666-7811,TX
Missouri City,5402 Highway 6,"Missouri City, TX  77459",(281) 208-8310,TX
Missouri City - Sienna Parkway (Presale),9026 Sienna Crossing Drive,"Missouri City, TX  77459",(346) 245-5002,TX
North Richland Hills,9128 North Tarrant Parkway,"North Richland Hills, TX  76182",(682) 334-8094,TX
"Pasadena, TX",6793 Spencer Hwy,"Pasadena, TX  77505",(281) 241-5699,TX
Pearland East,2850 Pearland Parkway,"Pearland, TX  77581",(281) 971-1555,TX
Plano East - K Avenue,6101 K Ave,"Plano, TX  75074",(972) 517-0294,TX
Plano South - W Pres Gwb Hwy,3701 W. President George W. Bush Hwy,"Plano, TX  75075",(972) 964-5916,TX
Prosper,4900 W University Drive,"Prosper, TX  75078",(469) 296-5003,TX
Richardson (Esporta),1451 E. Beltline Rd,"Richardson, TX  75081",(214) 646-1382,TX
Round Rock - Palm Valley Blvd,1000 N. AW Grimes Blvd,"Round Rock, TX  78665",(512) 652-2271,TX
Round Rock - Rural Rd. 620,16600 N RM 620 Road,"Round Rock, TX  78681",(512) 765-7734,TX
Rowlett,4401 Lakeview Parkway,"Rowlett, TX  75088",(972) 463-3301,TX
Sachse,7720 Highway 78,"Sachse, TX  75048",(469) 209-8366,TX
San Antonio - Babcock Rd.,5803 Babcock Rd,"San Antonio, TX  78240",(210) 202-3139,TX
San Antonio - Bulverde Rd,17138 Autry Pond Rd,"San Antonio, TX  78247",(210) 547-3400,TX
San Antonio - North Loop 1604,1339 N. Loop 1604 W.,"San Antonio, TX  78258",(210) 254-1597,TX
San Antonio - NW Loop 410,7427 NW Loop 410,"San Antonio, TX  78245",(210) 527-8499,TX
San Antonio - W. Loop 1604,522 West 1604 North,"San Antonio, TX  78251",(210) 714-9783,TX
San Antonio Loop 410 @ Blanco,7140 Blanco Road,"San Antonio, TX  78216",(210) 853-0627,TX
Spring,20127 Interstate 45 North,"Spring, TX  77388",(281) 350-4298,TX
Spring - Kuykendahl Rd (Signature),21720 Kuykendahl,"Spring, TX  77388",(832) 702-8085,TX
Spring - Rayford Rd (Signature),3570 Harmony Commons Drive,"Spring, TX  77386",(832) 403-2913,TX
Sugarland,19880 Southwest Freeway,"Sugar Land, TX  77479",(281) 232-8719,TX
West Oaks,9025 Highway 6 South,"Houston, TX  77083",(281) 575-0070,TX
Westheimer @ Gessner,9603 Westheimer Road,"Houston, TX  77063",(713) 470-4098,TX
Beaverton,2800 SW Hocken Ave,"Beaverton, OR  97005",(503) 627-0737,OR
Gresham,779 NW Council Drive,"Gresham, OR  97030",(503) 669-8818,OR
Lloyd Center,1270 NE Weidler St,"Portland, OR  97232",(503) 734-2950,OR
Pearl District,1400 NW Northrup Street,"Portland, OR  97209",(503) 928-8892,OR
Portland - SE 82nd,4140 SE 82nd Avenue,"Portland, OR  97266",(503) 345-0782,OR
Tanasbourne/Hillsboro,7410 NE Imbrie Dr,"Hillsboro, OR  97124",(503) 640-7872,OR
Tualatin,7405 SW Nyberg Street,"Tualatin, OR  97062",(503) 404-0126,OR
Bartlett - Stage Rd (Esporta),6050 Stage Road,"Bartlett, TN  38134",(901) 203-0391,TN
Collierville (Esporta),1088 W Poplar Ave,"Collierville, TN  38017",(901) 610-4176,TN
Cordova (Esporta),773 N Germantown Parkway,"Cordova, TN  38018",(901) 203-3362,TN
Lakeland - US Hwy 64 (Esporta),8864 US Highway 64,"Lakeland, TN  38002",(901) 291-1113,TN
Memphis - Oak Court (Esporta),4572 Poplar Ave,"Memphis, TN  38117",(901) 203-5361,TN
Memphis - Polo Grounds Blvd (Esporta),7630 Polo Grounds Blvd,"Memphis, TN  38125",(901) 291-1101,TN
Memphis Ridgeway Rd (Esporta),1285 Ridgeway Road,"Memphis, TN  38119",(901) 291-1114,TN
Apple Valley,15135 Galaxie Avenue,"Apple Valley, MN  55124",(952) 432-6085,MN
"Brooklyn Ctr- Shingle Creek, MN",1500 Shingle Creek Crossing,"Brooklyn Center, MN  55430",(763) 567-2037,MN
Brooklyn Park,6600 96th Lane North,"Brooklyn Park, MN  55445",(763) 515-7778,MN
Burnsville,1801 County Road 42 West,"Burnsville, MN  55306",(952) 392-4400,MN
Edina,4175 West 76th Street,"Edina, MN  55435",(612) 235-4831,MN
Hopkins,1710 State Highway 7,"Hopkins, MN  55343",(612) 246-3692,MN
Maplewood,1940 County Road D East,"Maplewood, MN  55109",(651) 355-1655,MN
Minneapolis Uptown,3001 Hennepin Ave South Suite 2210,"Minneapolis, MN  55408",(612) 392-0395,MN
New Brighton,1101 Silver Lake Road,"New Brighton, MN  55112",(651) 674-3186,MN
Oakdale,7360 33rd Street North,"Oakdale, MN  55128",(612) 225-9831,MN
Richfield,6501 Lyndale Avenue S,"Richfield, MN  55423",(612) 861-5505,MN
Roseville - Cleveland Ave N,2420 Cleveland Ave. North,"Roseville, MN  55113",(612) 235-4844,MN
St Paul,1370 University Ave West,"St Paul, MN  55104",(651) 222-9843,MN
St. Louis Park,3555 S Highway 100,"St Louis Park, MN  55416",(763) 392-1802,MN
West St. Paul,1611 Robert St,"West St Paul, MN  55118",(612) 913-5792,MN
Ahwatukee West,4836 E. Chandler Blvd,"Phoenix, AZ  85048",(480) 592-9090,AZ
Arrowhead (Esporta),5536 W. Bell Road,"Glendale, AZ  85308",(602) 547-9425,AZ
Avondale (Esporta),13035 W. Rancho Santa FE Blvd.,"Avondale, AZ  85392",(623) 535-8700,AZ
Camelback @ I-51,2077 East Camelback Road,"Phoenix, AZ  85016",(602) 241-9800,AZ
Chandler (Esporta),2100 N. Dobson Road,"Chandler, AZ  85224",(480) 782-7560,AZ
Chandler - Arizona Ave,3985 S Arizona Ave,"Chandler, AZ  85248",(480) 426-7819,AZ
Desert Sky (Esporta),7640 W. Thomas Road,"Phoenix, AZ  85033",(623) 845-9920,AZ
Gilbert - S. Gilbert Rd. (Esporta),3625 S Gilbert Rd,"Gilbert, AZ  85297",(480) 845-6594,AZ
Gilbert - S. Higley/Loop 202,1310 S Higley Road,"Gilbert, AZ  85296",(480) 448-4743,AZ
Glendale - Peoria Avenue (Esporta),5810 W. Peoria Avenue,"Glendale, AZ  85302",(602) 362-0109,AZ
Goodyear (Esporta),1382 South Cotton Lane,"Goodyear, AZ  85338",(480) 422-6088,AZ
Laveen,5175 W Baseline Rd,"Laveen, AZ  85339",(602) 904-7425,AZ
Marana,5885 W Arizona Pavilions Dr,"Marana, AZ  85743",(520) 342-0809,AZ
Mccormick Ranch,7365 N. Via Paseo Del Sur,"Scottsdale, AZ  85258",(480) 483-3100,AZ
Mesa - N. Power Rd.,2605 North Power Road,"Mesa, AZ  85215",(480) 296-0242,AZ
Mesa- Rio Salado Pkwy/Dobson (Esporta),1844 W Rio Salado Parkway,"Mesa, AZ  85201",(480) 296-2381,AZ
Mesa/Greenfield (Esporta),1731 S Greenfield Rd,"Mesa, AZ  85206",(480) 635-9600,AZ
Mesa/Superstition,1905 South Signal Butte,"Mesa, AZ  85209",(480) 984-4900,AZ
Mesa/University (Esporta),445 N Stapley Drive,"Mesa, AZ  85203",(480) 751-1992,AZ
Moon Valley/Phoenix North,244 East Greenway Pkwy.,"Phoenix, AZ  85022",(602) 863-3830,AZ
Oro Valley,8850 N Oracle Rd,"Oro Valley, AZ  85704",(520) 918-4386,AZ
Paradise Valley (Esporta),11630 Tatum Blvd.,"Phoenix, AZ  85028",(602) 404-4700,AZ
Peoria West - N 91st (Esporta),8160 N 91st Avenue,"Peoria, AZ  85345",(623) 877-3640,AZ
Phoenix Baseline @ 24th Street (Esporta),2325 E Baseline Rd,"Phoenix, AZ  85042",(623) 255-3391,AZ
Phoenix E Bell Rd/ N 32nd St (Esporta),3301 E Bell Rd,"Phoenix, AZ  85032",(602) 567-0240,AZ
Phoenix West Camelback @7th Ave,710 West Camelback Road,"Phoenix, AZ  85013",(602) 282-0243,AZ
Phoenix-Northern Ave (Esporta),2200 W Northern Ave,"Phoenix, AZ  85021",(602) 995-1234,AZ
Queen Creek (Esporta),7225 South Power Rd Building A,"Queen Creek, AZ  85142",(480) 988-6262,AZ
San Tan Valley,40885 N. Ironwood Drive,"San Tan Valley, AZ  85140",(480) 448-4744,AZ
Scottsdale - Shea Blvd (Esporta),7330 E Shea Blvd,"Scottsdale, AZ  85260",(480) 348-0006,AZ
Scottsdale -Scottsdale Rd,1900 N. Scottsdale Road,"Scottsdale, AZ  85257",(480) 675-7600,AZ
Surprise (Esporta),16635 W Bell Rd,"Surprise, AZ  85374",(602) 491-9467,AZ
Tempe,63 E. Southern Avenue,"Tempe, AZ  85282",(480) 829-0622,AZ
Tolleson (Esporta),9880 West Lower Buckeye Road,"Tolleson, AZ  85353",(602) 734-1363,AZ
Tucson - Wilmot Rd.,240 South Wilmot Rd,"Tucson, AZ  85711",(520) 748-1295,AZ
Tucson Central - 1st Ave,4240 N 1st Ave,"Tucson, AZ  85719",(520) 888-4900,AZ
Tucson North - West Ina Road,2950 West Ina Road,"Tucson, AZ  85741",(520) 742-2881,AZ
Tucson SE - East Golf Links,9350 East Golf Links Rd,"Tucson, AZ  85730",(520) 399-8244,AZ
Charlotte-Copper Way,12325 Copper Way,"Charlotte, NC  28277",(704) 247-9090,NC
Charlotte-Prosperity Church Rd (Presale),"2025 E Arbors Drive, Ste 220","Charlotte, NC  28262",(704) 270-8616,NC
Winston-Salem Stratford Rd,240 Harvey Street,"Winston-Salem, NC  27103",(336) 934-8520,NC
Auburn - Auburn Way N,1347 Auburn Way North,"Auburn, WA  98002",(253) 263-8049,WA
Ballard (Signature),1416 NW Ballard Way,"Seattle, WA  98107",(206) 508-5030,WA
Bellevue/Kelsey Creek,15053 Main Street,"Bellevue, WA  98007",(425) 698-2575,WA
Burien,14905 4th Ave. SW,"Burien, WA  98166",(206) 701-3446,WA
Covington,27245 172nd Avenue SE,"Covington, WA  98042",(253) 458-0960,WA
Everett,"1402 SE. Everett Mall Way, Ste 138","Everett, WA  98208",(425) 290-9351,WA
Federal Way,35009 Enchanted Parkway South,"Federal Way, WA  98003",(253) 838-5900,WA
Hazel Dell,7607 NE 5th Avenue,"Vancouver, WA  98665",(360) 546-3400,WA
Kent,520 Washington Ave South,"Kent, WA  98032",(253) 859-7815,WA
Kent - SE Kent-Kangley Rd,12922 SE Kent Kangley Rd,"Kent, WA  98030",(253) 220-9847,WA
Kirkland Totem Lake @ I-405 (Signature),12321 120th Place NE,"Kirkland, WA  98034",(425) 298-1331,WA
Lacey,1200 Galaxy Drive,"Lacey, WA  98516",(360) 339-6209,WA
Lynnwood/Hwy 99,19800 Highway 99,"Lynnwood, WA  98036",(425) 245-0673,WA
Mill Creek,15024 Main Street,"Mill Creek, WA  98012",(425) 379-9703,WA
Mukilteo Speedway - Lynnwood,13619 Mukilteo Speedway,"Lynnwood, WA  98087",(206) 480-1103,WA
Puyallup - 156th,10515 156th Street East,"Puyallup, WA  98374",(253) 466-0007,WA
Redondo,27417 Pacific Highway South,"Federal Way, WA  98003",(253) 941-5800,WA
Renton - N Landing Way,715 North Landing Way,"Renton, WA  98057",(206) 922-0350,WA
Renton/Fairwood,14060 SE Petrovitsky Rd,"Renton, WA  98058",(425) 529-9303,WA
Seattle - 31st Ave NE,12015 31st Ave NE,"Seattle, WA  98125",(206) 417-4715,WA
Seattle - Aurora Ave North,13244 Aurora Ave North,"Seattle, WA  98133",(206) 973-0232,WA
Seattle - Roosevelt Way NE (Presale),"6419 12th Ave, Space #20","Seattle, WA  98115",(206) 257-7687,WA
Tacoma - S 72nd St,1905B South 72nd Street,"Tacoma, WA  98408",(253) 533-9387,WA
Tacoma North- Sixth Ave,5915 Sixth Ave,"Tacoma, WA  98406",(253) 590-4118,WA
Tacoma Pacific,15707 Pacific Ave S,"Tacoma, WA  98444",(253) 944-9104,WA
Tukwila,350 Baker Blvd,"Tukwila, WA  98188",(206) 331-4071,WA
Vancouver East,11505 NE Fourth Plain Rd,"Vancouver, WA  98662",(360) 859-0006,WA
West Seattle/ SW Alaska St (Signature),3900 SW Alaska Street,"Seattle, WA  98116",(206) 582-0888,WA
Alexandria,6200 Little River Turnpike,"Alexandria, VA  22312",(703) 637-2204,VA
Alexandria - Beulah St,7867 Heneska Loop,"Alexandria, VA  22315",(571) 302-8389,VA
Arlington - Clark St,3550 S Clark Street,"Arlington, VA  22202",(703) 229-1504,VA
Ashburn (Signature),43150 Broadlands Center Plaza #138,"Ashburn, VA  20148",(703) 936-8412,VA
Herndon (Signature),494 Elden Street,"Herndon, VA  20170",(571) 500-5730,VA
Leesburg,1490 Classic Path Way SE,"Leesburg, VA  20175",(571) 223-5694,VA
Manassas,9946 Liberia Ave,"Manassas, VA  20110",(703) 334-0439,VA
"Springfield Town Center, VA",6565 Springfield Mall,"Springfield, VA  22150",(703) 682-2861,VA
Sterling VA,21074 Dulles Town Circle,"Sterling, VA  20166",(703) 444-0302,VA
Woodbridge,13060 Worth Avenue,"Woodbridge, VA  22192",(703) 398-1373,VA
4S Ranch,16913 Dove Canyon Rd,"San Diego, CA  92127",(858) 676-6806,CA
Agoura Hills (Signature),5075 Roadside Rd,"Agoura Hills, CA  91301",(747) 212-9535,CA
Alhambra,412 East Main Street,"Alhambra, CA  91801",(626) 299-5980,CA
Alhambra/Fremont,920 South Fremont Ave,"Alhambra, CA  91803",(626) 310-3030,CA
Anaheim Hills,5757 Santa Ana Canyon Rd.,"Anaheim Hills, CA  92807",(714) 282-3931,CA
Arcadia,1325 South Baldwin Avenue,"Arcadia, CA  91007",(626) 400-5001,CA
Baldwin Park - E Garvey Ave,13822 Garvey Ave,"Baldwin Park, CA  91706",(626) 521-5293,CA
Beverly Hills - Wilshire Blvd. (Signature),9100 Wilshire Blvd Ste 100E,"Beverly Hills, CA  90212",(310) 734-0942,CA
Block @ Orange (Esporta),3901 W. Metropolitan Dr.,"Orange, CA  92868",(714) 769-8000,CA
Cerritos - Alondra Blvd,10802 Alondra Blvd.,"Cerritos, CA  90703",(562) 924-8737,CA
Chino,14485 Pipeline Ave.,"Chino, CA  91710",(909) 393-3101,CA
Corona South - Compton Ave,2355 Compton Ave,"South Corona, CA  92881",(951) 898-1178,CA
Culver City,3827 Overland Avenue,"Culver City, CA  90232",(310) 204-2030,CA
Diamond Bar,20801 Golden Springs Dr.,"Diamond Bar, CA  91789",(909) 595-0045,CA
Downey-Firestone,7230 Firestone Blvd,"Downey, CA  90241",(562) 927-5688,CA
Downey-Lakewood Blvd,12074 Lakewood Boulevard,"Downey, CA  90242",(562) 803-3432,CA
Downtown LA Bloc - Flower St.,700 W 7th Street Suite G300,"Los Angeles, CA  90017",(213) 624-3933,CA
Eastlake,2070 Otay Lakes Road,"Chula Vista, CA  91915",(619) 397-7240,CA
Encinitas,201 S. EL Camino Real Suite #A,"Encinitas, CA  92024",(760) 753-5600,CA
Escondido,362 W. EL Norte Pkwy,"Escondido, CA  92026",(760) 738-1347,CA
Fontana,16289 Sierra Lakes Parkway,"Fontana, CA  92336",(909) 743-5922,CA
Fountain Valley (Esporta),10115 Talbert Avenue,"Fountain Valley, CA  92708",(714) 962-1374,CA
Garden Grove,11932 Valley View Street,"Garden Grove, CA  92845",(714) 379-9744,CA
Glendale - Brand Blvd.,144 S Brand Blvd,"Glendale, CA  91205",(818) 638-1762,CA
Glendora,820 S. Grand Avenue,"Glendora, CA  91740",(626) 335-5474,CA
Harbor City,908 W Sepulveda Blvd,"Harbor City, CA  90710",(424) 203-2060,CA
Hawthorne - 147th St.,4949 West 147th Street,"Hawthorne, CA  90250",(310) 844-0653,CA
Hemet,220 North Sanderson Ave,"Hemet, CA  92545",(951) 663-4786,CA
"Highland, CA (Esporta)",28015 Greenspot Rd,"Highland, CA  92346",(909) 742-5131,CA
"Hollywood Blvd, CA",7021 Hollywood Blvd.,"Los Angeles, CA  90028",(323) 462-5199,CA
Hollywood-El Centro Ave,1628 N. EL Centro Avenue,"Los Angeles, CA  90028",(323) 461-0227,CA
Huntington Beach Seacliff,19330 Goldenwest St,"Huntington Beach, CA  92648",(657) 464-2464,CA
Huntington Park,3081 E. Slauson Avenue,"Huntington Park, CA  90255",(323) 589-8935,CA
Inglewood,3531 W. Century Boulevard,"Inglewood, CA  90303",(310) 672-6002,CA
Irvine - Crossroads,3960 Barranca Pkwy,"Irvine, CA  92606",(949) 502-2777,CA
Irvine - Jamboree,2880 Michelle Drive,"Irvine, CA  92606",(714) 505-8958,CA
Irvine - Michelson Dr (Signature),3021 Michelson Drive,"Irvine, CA  92612",(949) 988-5372,CA
Irvine East - Irvine Blvd,6400 Irvine Blvd.,"Irvine, CA  92620",(949) 502-2043,CA
Kearny Mesa,4984 Shawline St,"San Diego, CA  92111",(858) 292-8810,CA
LA Cienega,1833 C. South LA Cienega Blvd,"Los Angeles, CA  90035",(310) 202-6823,CA
LA Habra (Esporta),1621 W. Imperial Hwy.,"La Habra, CA  90631",(562) 697-8899,CA
LA Verne,1275 E. Foothill Blvd.,"La Verne, CA  91750",(909) 344-5397,CA
Lake Elsinore,18550 Dexter Ave,"Lake Elsinore, CA  92530",(951) 579-4183,CA
Lake Forest,29400 Portola Parkway,"Lake Forest, CA  92630",(949) 597-2077,CA
Long Beach/Bellflower,2180 N Bellflower Blvd,"Long Beach, CA  90815",(562) 314-1820,CA
Long Beach-Cherry,2140 East Carson St.,"Long Beach, CA  90807",(562) 997-9176,CA
Long Beach-Downey Ave (Esporta),5810 Downey Avenue,"Long Beach, CA  90805",(562) 272-7255,CA
Long Beach-Pch,4438 E. Pacific Coast Hwy.,"Long Beach, CA  90804",(562) 494-1216,CA
Menifee,29737 Antelope Rd,"Menifee, CA  92584",(951) 309-9017,CA
Miracle Mile,5950 Wilshire Blvd.,"Miracle Mile, CA  90036",(323) 934-6150,CA
Bristol (Esporta),1379 Farmington Ave,"Bristol, CT  06010",(860) 516-4200,CT
Farmington (Esporta),1600 Southeast Road,"Farmington, CT  06032",(860) 321-2062,CT
Milford,1201 Boston Post Road Space 2090,"Milford, CT  06460",(203) 701-4827,CT
Newington,3563 Berlin Turnpike,"Newington, CT  06111",(860) 838-4239,CT
"Norwalk, CT",761 Main Ave,"Norwalk, CT  06851",(203) 842-0012,CT
Stamford,52 Sixth Street,"Stamford, CT  06905",(203) 353-8810,CT
Stratford (Esporta),411 Barnum Ave Cut-Off,"Stratford, CT  06614",(203) 212-5491,CT
Trumbull,5065 Main Street,"Trumbull, CT  06611",(203) 683-1321,CT
Allen Park,3223 Fairlane Drive,"Allen Park, MI  48101",(313) 254-4411,MI
Ann Arbor - N. Maple Rd. (Signature),155 N Maple Rd,"Ann Arbor, MI  48103",(734) 821-4976,MI
Bloomfield Hills,2050 South Telegraph Rd,"Bloomfield Hills, MI  48302",(248) 630-2720,MI
Clinton Township,17500 Hall Road,"Clinton Township, MI  48038",(586) 913-8587,MI
Grosse Pointe Woods,22327 Moross Road,"Detroit, MI  48236",(313) 732-9188,MI
Livonia,30273 Plymouth Road,"Livonia, MI  48150",(734) 956-9914,MI
Livonia - North,29659 7 Mile Rd,"Livonia, MI  48152",(734) 772-9590,MI
Plymouth,41128 Ann Arbor Rd E,"Plymouth, MI  48170",(734) 259-4370,MI
Roseville - Gratiot Ave,31055 Gratiot Ave,"Roseville, MI  48066",(586) 298-3030,MI
Royal Oak (Signature),25352 Woodward Ave,"Royal Oak, MI  48067",(248) 565-2750,MI
Shelby (Signature),7500 26 Mile Rd,"Shelby Township, MI  48316",(586) 935-0053,MI
Southfield,28661 Telegraph Road,"Southfield, MI  48034",(248) 436-0157,MI
St Clair Shores,20701 E. Eight Mile Road,"St. Clair Shores, MI  48080",(586) 772-0005,MI
Sterling Heights - Mound Rd.,44777 Mound Road,"Sterling Heights, MI  48314",(586) 930-0008,MI
Troy - Big Beaver Rd,710 E. Big Beaver Road,"Troy, MI  48083",(248) 434-0041,MI
Troy - W. Maple Rd. (Signature),3501 West Maple Road Suite A,"Troy, MI  48084",(248) 430-0584,MI
Warren,30195 Mound Rd,"Warren, MI  48092",(586) 501-0008,MI
Woodhaven,20940 West Road,"Woodhaven, MI  48183",(734) 672-9087,MI
