Store_Name,Address,City_State_Zip,Phone_Number,State
Akers Mill,2995 Cobb Parkway,"Atlanta, GA  30339",(770) 956-9093,GA
Alpharetta/Windward,"5530 Windward Parkway, Suite H","Alpharetta, GA  30004",(678) 393-2733,GA
Ansley Mall,1544 Piedmont Ave NE Suite 115,"Atlanta, GA  30324",(404) 249-6463,GA
Atlanta-Peachtree Rd,3535 Peachtree Road NE Suite 300,"Atlanta, GA  30326",(404) 389-1143,GA
Atlantic Station,261 19th St. Suite 1140,"Atlanta, GA  30363",(404) 810-9015,GA
Austell - Austell Rd,"3999 Austell Road, Suite 101","Austell, GA  30106",(678) 224-9091,GA
Brookhaven,755 Brookhaven Ave,"Atlanta, GA  30319",(678) 280-8844,GA
Buford,3420 Buford Drive NE,"Buford, GA  30519",(678) 714-5075,GA
Camp Creek,"3755 Carmia Dr. SW, Suite 700","Atlanta, GA  30331",(404) 344-1248,GA
College Park,6385 Old National Highway,"Atlanta, GA  30349",(678) 304-2444,GA
Conyers,1618 Highway 138,"Conyers, GA  30013",(770) 760-1337,GA
Cumming,540 Lakeland Plaza,"Cumming, GA  30040",(678) 208-3049,GA
Decatur - Church St,1496 Church St,"Decatur, GA  30030",(404) 267-2723,GA
Decatur - Covington Hwy,6088 Covington Highway,"Decatur, GA  30035",(770) 308-0238,GA
Douglasville,3020 Chapel Hill Rd,"Douglasville, GA  30135",(678) 202-5613,GA
Duluth - Peachtree Industrial,3455 Peachtree Industrial Blvd,"Duluth, GA  30096",(770) 285-2046,GA
Duluth - Pleasant Hill Rd,1625 Pleasant Hill Rd # 245,"Duluth, GA  30096",(678) 259-2309,GA
East Cobb,4400 Roswell Road Suite 126,"Marietta, GA  30062",(770) 973-3370,GA
Holcomb @ 400,1475 Holcomb Bridge Rd Ste 189,"Roswell, GA  30076",(770) 640-8137,GA
Johns Creek,11720 Medlock Bridge Road Suite 400,"Duluth, GA  30097",(770) 623-9433,GA
Kennesaw - Wade Green,4200 Wade Green Rd Suite 38,"Kennesaw, GA  30144",(678) 202-5179,GA
Kennesaw-Barrett,1185 Ernest Barrett Pkwy NW,"Kennesaw, GA  30144",(678) 202-5503,GA
"Lawrenceville, GA",600 Gwinnett Dr,"Lawrenceville, GA  30045",(470) 222-2009,GA
"Lenox/Buckhead, GA","3232 Peachtree Road NW, #A","Atlanta, GA  30305",(404) 233-8311,GA
Marietta South,"1453 Terrell Mill Road, Suite 145","Marietta, GA  30067",(678) 279-2843,GA
Mcdonough,95 Foster Drive,"Mcdonough, GA  30253",(678) 228-8011,GA
Midtown,75 Fifth Street NW Suite E,"Atlanta, GA  30308",(404) 212-1065,GA
Norcross - Peachtree Corners,6131 Peachtree Parkway,"Peachtree Corners, GA  30092",(470) 282-0915,GA
North Lake Tucker,1990 West Exchange Place,"Tucker, GA  30084",(770) 414-0651,GA
Perimeter Pointe,"1155 Mount Vernon Hwy., Ste 600","Dunwoody, GA  30338",(770) 350-4951,GA
Roswell-Hwy 92/Hardscrabble Rd,1045 Woodstock Road,"Roswell, GA  30075",(770) 375-4351,GA
Sandy Springs,6690 Roswell Road,"Sandy Springs, GA  30328",(404) 478-4161,GA
Snellville,2279 Pinehurst Rd,"Snellville, GA  30078",(770) 979-1288,GA
Southlake,7057 Mount Zion Circle,"Morrow, GA  30260",(770) 960-0393,GA
Sprayberry,2550 Sandy Plains Rd,"Marietta, GA  30066",(678) 202-5178,GA
Stone Mountain,5295 Stone Mountain Highway,"Stone Mountain, GA  30087",(770) 469-2120,GA
Sugar Hill,6025 Cumming Highway,"Sugar Hill, GA  30518",(470) 202-9109,GA
Sugarloaf,1860 Duluth Highway,"Lawrenceville, GA  30043",(770) 822-2533,GA
Toco Hills,2880 N. Druid Hill,"Atlanta, GA  30329",(404) 321-2330,GA
Towne Lake,2060 Eagle Drive,"Woodstock, GA  30189",(678) 202-5612,GA
