Store_Name,Address,City_State_Zip,Phone_Number,State
Aspen Hill,2219 Bel Pre Road,"Silver Spring, MD  20906",(301) 348-3650,MD
Baltimore - Eastern Ave,5711 Fleet St,"Baltimore, MD  21224",(443) 853-8315,MD
Bowie,15401 Emerald Way,"Bowie, MD  20716",(301) 867-6623,MD
Crofton/Gambrills,2625 Brandermill Blvd,"Gambrills, MD  21054",(410) 774-0350,MD
Gaithersburg - Copley Place,314 Copley Place,"Gaithersburg, MD  20878",(301) 944-5734,MD
Gaithersburg - Quince Orchard,602 Quince Orchard Rd,"Gaithersburg, MD  20878",(301) 987-5421,MD
Greenbelt MD,7415 Greenbelt Road,"Greenbelt, MD  20770",(301) 441-8300,MD
Hyattsville,2970 Belcrest Center Drive,"Hyattsville, MD  20782",(301) 559-5031,MD
Lanham,9450 Ruby Lockhart Blvd,"Lanham, MD  20706",(240) 623-8662,MD
Lansdowne,3551 Washington Blvd,"Lansdowne, MD  21227",(410) 242-2062,MD
Laurel,327 Montrose Ave,"Laurel, MD  20707",(240) 294-5867,MD
Marlboro,50 Watkins Park Drive,"Upper Marlboro, MD  20774",(301) 909-7669,MD
Owings Mills,10040 Reisterstown Road,"Owings Mills, MD  21117",(443) 641-0138,MD
Pasadena MD,8120 Jumpers Hole Road,"Pasadena, MD  21122",(443) 344-0213,MD
Rockville (Signature),11416 Rockville Pike Suite A,"Rockville, MD  20852",(301) 761-0001,MD
Silver Spring,8616 Cameron St,"Silver Spring, MD  20910",(301) 589-2323,MD
Towson,435 York Road #300,"Towson, MD  21204",(410) 842-1872,MD
Waldorf,2916 Festival Way,"Waldorf, MD  20601",(240) 530-8102,MD
Wheaton,11010 Veirs Mill Road,"Wheaton, MD  20902",(301) 933-6100,MD
White Marsh,8221 Town Center Drive,"Nottingham, MD  21236",(410) 931-8080,MD
