Store_Name,Address,City_State_Zip,Phone_Number,State
Abington,371 Highland Ave,"Glenside, PA  19038",(215) 277-2032,PA
Allentown,1515 Mauch Chunk Road,"Allentown, PA  18102",(610) 432-7330,PA
Andorra,701 Cathedral Road,"Philadelphia, PA  19128",(215) 482-4088,PA
Bala Cynwyd,25 East City Avenue,"Bala Cynwyd, PA  19004",(610) 664-4282,PA
Bensalem,500 Rock Hill Drive,"Bensalem, PA  19020",(215) 357-4311,PA
Bridgeville,1155 Washington Pike,"Bridgeville, PA  15017",(412) 569-1180,PA
Brookhaven-Edgmont Ave,4900 Edgmont Ave,"Brookhaven, PA  19015",(484) 768-8216,PA
Broomall (Signature),2170 West Chester Pike,"Broomall, PA  19008",(484) 427-2045,PA
Camp Hill,3321 Trindle Road,"Camp Hill, PA  17011",(717) 731-1015,PA
Cheltenham,2401 Cheltenham Ave Suite M3,"Cheltenham, PA  19150",(267) 536-5228,PA
Collegeville,400 Front Street Suite #3,"Collegeville, PA  19426",(484) 961-6012,PA
Downingtown,109 Quarry Road,"Downingtown, PA  19335",(484) 237-2012,PA
East Norriton/Swede Square,2961 Swede Road,"East Norriton, PA  19401",(610) 279-0383,PA
Easton,340 South 25th St,"Easton, PA  18042",(484) 541-4020,PA
FT Washington,1175 Virginia Drive,"Fort Washington, PA  19034",(215) 646-1131,PA
Greensburg,3000 Lincoln Place,"Greensburg, PA  15601",(724) 261-3301,PA
Huntingdon Valley,2020 County Line Rd.,"Huntingdon Vly, PA  19006",(215) 364-8044,PA
King OF Prussia - Village Dr,200 Village Dr,"King Of Prussia, PA  19406",(215) 716-9093,PA
Lancaster,1300A Lititz Pike,"Lancaster, PA  17601",(717) 295-1990,PA
Monroeville,"4100 William Penn Highway, Suite 43","Monroeville, PA  15146",(412) 357-1133,PA
Montgomeryville,120 Garden Golf Blvd.,"North Wales, PA  19454",(215) 361-6133,PA
North Hills,8700 Duncan Avenue,"Pittsburgh, PA  15237",(412) 204-4023,PA
Oxford Valley,7 Cabot Blvd.,"Langhorne, PA  19047",(215) 943-9500,PA
Philadelphia - Cottman Ave,2327 Cottman Ave,"Philadelphia, PA  19149",(267) 668-1467,PA
Philadelphia - Grant Ave,2560 Grant Avenue,"Philadelphia, PA  19114",(267) 344-1452,PA
Philadelphia-Franklin Mills,851 Franklin Mills Circle,"Philadelphia, PA  19154",(215) 637-1580,PA
Pittsburgh/Southside Works,2701 East Carson Street,"Pittsburgh, PA  15203",(412) 360-0256,PA
Pittsburgh-Penn Ave (Signature),6425 Penn Ave,"Pittsburgh, PA  15206",(412) 204-0055,PA
Pleasant Hills,"601 Clairton Blvd., Unit 38","Pleasant Hills, PA  15236",(412) 224-1888,PA
Pottstown,120 Upland Square Drive Suite 120,"Stowe, PA  19464",(484) 948-3168,PA
Robinson Township,400 Settlers Ridge Center Drive,"Pittsburgh, PA  15205",(412) 620-1080,PA
"Springfield, PA",825 Baltimore Pike,"Springfield, PA  19064",(610) 543-2006,PA
Warrington,599 Paul Valley Road,"Warrington, PA  18976",(215) 918-0900,PA
"West Chester-Paoli Pike, PA",975 Paoli Pike,"West Chester, PA  19380",(610) 235-2788,PA
Wyomissing,1183 Berkshire Blvd.,"Wyomissing, PA  19610",(610) 373-6515,PA
